ONEWEB-0311             
1 49097U 21075Y   24139.58243405  .00000020  00000+0  17714-4 0  9999
2 49097  87.9167 157.0492 0001730  79.3998 280.7328 13.17649651133597
ONEWEB-0312             
1 49098U 21075Z   24139.59665888  .00000066  00000+0  13619-3 0  9993
2 49098  87.9166 157.0783 0002208  77.8299 282.3079 13.17651790133574
ONEWEB-0313             
1 49099U 21075AA  24139.57452401  .00000060  00000+0  12144-3 0  9993
2 49099  87.9168 157.0852 0002064  81.6879 278.4487 13.17649111133563
ONEWEB-0314             
1 49100U 21075AB  24139.56818642  .00000113  00000+0  25835-3 0  9998
2 49100  87.9163 157.0456 0002172  75.6087 284.5285 13.17650311133530
ONEWEB-0315             
1 49101U 21075AC  24139.50701647 -.00000175  00000+0 -52197-3 0  9990
2 49101  87.8922 141.9128 0001970  92.1494 267.9860 13.12445478135528
ONEWEB-0316             
1 49102U 21075AD  24139.48398142  .00000109  00000+0  24327-3 0  9999
2 49102  87.9124 126.6928 0001848  82.5238 277.6104 13.18686153137080
ONEWEB-0317             
1 49103U 21075AE  24139.42443054 -.00000235  00000+0 -68944-3 0  9992
2 49103  87.8926 141.9382 0002502  96.0768 264.0646 13.12446543135530
ONEWEB-0318             
1 49104U 21075AF  24139.48081840  .00000088  00000+0  18921-3 0  9994
2 49104  87.9121 126.6877 0001782  81.0709 279.0624 13.18686310137040
